[{"OBJECT_NAME":"STARLINK-32706","OBJECT_ID":"2024-239H","EPOCH":"2026-03-09T13:57:31.314816","MEAN_MOTION":15.301931,"ECCENTRICITY":0.0001231,"INCLINATION":53.159,"RA_OF_ASC_NODE":194.6839,"ARG_OF_PERICENTER":109.9886,"MEAN_ANOMALY":250.1247,"EPHEMERIS_TYPE":0,"CLASSIFICATION_TYPE":"U","NORAD_CAT_ID":62308,"ELEMENT_SET_NO":999,"REV_AT_EPOCH":6936,"BSTAR":0.00053663,"MEAN_MOTION_DOT":0.00015564,"MEAN_MOTION_DDOT":0},{"OBJECT_NAME":"ION SCV-017","OBJECT_ID":"2025-052W","EPOCH":"2026-03-09T17:11:44.577024","MEAN_MOTION":15.26881798,"ECCENTRICITY":0.0023746,"INCLINATION":97.4016,"RA_OF_ASC_NODE":324.7516,"ARG_OF_PERICENTER":44.9875,"MEAN_ANOMALY":315.3282,"EPHEMERIS_TYPE":0,"CLASSIFICATION_TYPE":"U","NORAD_CAT_ID":63230,"ELEMENT_SET_NO":999,"REV_AT_EPOCH":5485,"BSTAR":0.00024539061,"MEAN_MOTION_DOT":6.457e-5,"MEAN_MOTION_DDOT":0}]
